{"type": "FeatureCollection", "features": [ {"type": "Feature", "properties": {"norad_id": 43010, "name": "FENGYUN 3D", "group": "weather", "lat": -5.712319929401777, "lon": -48.33479680802599, "alt_km": 830.5982178693412, "timestamp": "2025-12-10T11:33:53.034276+00:00", "meta": {"OBJECT_NAME": "FENGYUN 3D", "OBJECT_ID": "2017-072A", "EPOCH": "2025-12-10T04:49:33.784608", "MEAN_MOTION": 14.19682172, "ECCENTRICITY": 7.89e-05, "INCLINATION": 98.9892, "RA_OF_ASC_NODE": 310.473, "ARG_OF_PERICENTER": 189.276, "MEAN_ANOMALY": 170.8401, "EPHEMERIS_TYPE": 0, "CLASSIFICATION_TYPE": "U", "NORAD_CAT_ID": 43010, "ELEMENT_SET_NO": 999, "REV_AT_EPOCH": 41817, "BSTAR": 9.244e-05, "MEAN_MOTION_DOT": 1.49e-06, "MEAN_MOTION_DDOT": 0}, "tle": {"line1": "1 43010U 17072A   25344.20108547  .00000149  00000+0  92440-4 0  9996", "line2": "2 43010  98.9892 310.4730 0000789 189.2760 170.8401 14.19682172418173"}}, "geometry": {"type": "Point", "coordinates": [-48.33479680802599, -5.712319929401777]}}, {"type": "Feature", "properties": {"norad_id": 43013, "name": "NOAA 20 (JPSS-1)", "group": "weather", "lat": 31.46816122126395, "lon": 106.2181860034183, "alt_km": 824.3187720014648, "timestamp": "2025-12-10T11:33:53.034287+00:00", "meta": {"OBJECT_NAME": "NOAA 20 (JPSS-1)", "OBJECT_ID": "2017-073A", "EPOCH": "2025-12-10T02:24:41.917824", "MEAN_MOTION": 14.1952455, "ECCENTRICITY": 0.0002144, "INCLINATION": 98.7596, "RA_OF_ASC_NODE": 280.4262, "ARG_OF_PERICENTER": 91.0486, "MEAN_ANOMALY": 269.0936, "EPHEMERIS_TYPE": 0, "CLASSIFICATION_TYPE": "U", "NORAD_CAT_ID": 43013, "ELEMENT_SET_NO": 999, "REV_AT_EPOCH": 41764, "BSTAR": 9.863e-05, "MEAN_MOTION_DOT": 1.64e-06, "MEAN_MOTION_DDOT": 0}, "tle": {"line1": "1 43013U 17073A   25344.10048516  .00000164  00000+0  98630-4 0  9992", "line2": "2 43013  98.7596 280.4262 0002144  91.0486 269.0936 14.19524550417643"}}, "geometry": {"type": "Point", "coordinates": [106.2181860034183, 31.46816122126395]}}, {"type": "Feature", "properties": {"norad_id": 43226, "name": "GOES 17", "group": "weather", "lat": 0.43635376411718185, "lon": 163.39347811322295, "alt_km": 35791.56029081579, "timestamp": "2025-12-10T11:33:53.034299+00:00", "meta": {"OBJECT_NAME": "GOES 17", "OBJECT_ID": "2018-022A", "EPOCH": "2025-12-10T04:23:38.620032", "MEAN_MOTION": 1.00271635, "ECCENTRICITY": 0.0003375, "INCLINATION": 0.4535, "RA_OF_ASC_NODE": 89.1426, "ARG_OF_PERICENTER": 186.9356, "MEAN_ANOMALY": 139.4998, "EPHEMERIS_TYPE": 0, "CLASSIFICATION_TYPE": "U", "NORAD_CAT_ID": 43226, "ELEMENT_SET_NO": 999, "REV_AT_EPOCH": 2852, "BSTAR": 0, "MEAN_MOTION_DOT": -1.79e-06, "MEAN_MOTION_DDOT": 0}, "tle": {"line1": "1 43226U 18022A   25344.18308588 -.00000179  00000+0  00000+0 0  9995", "line2": "2 43226   0.4535  89.1426 0003375 186.9356 139.4998  1.00271635 28527"}}, "geometry": {"type": "Point", "coordinates": [163.39347811322295, 0.43635376411718185]}}, {"type": "Feature", "properties": {"norad_id": 43491, "name": "FENGYUN 2H", "group": "weather", "lat": -2.4106385288440797, "lon": -27.69559879432602, "alt_km": 35785.67452040433, "timestamp": "2025-12-10T11:33:53.034311+00:00", "meta": {"OBJECT_NAME": "FENGYUN 2H", "OBJECT_ID": "2018-050A", "EPOCH": "2025-12-09T20:47:51.878688", "MEAN_MOTION": 1.00271041, "ECCENTRICITY": 0.0002944, "INCLINATION": 2.5434, "RA_OF_ASC_NODE": 81.3538, "ARG_OF_PERICENTER": 165.2045, "MEAN_ANOMALY": 223.6196, "EPHEMERIS_TYPE": 0, "CLASSIFICATION_TYPE": "U", "NORAD_CAT_ID": 43491, "ELEMENT_SET_NO": 999, "REV_AT_EPOCH": 2754, "BSTAR": 0, "MEAN_MOTION_DOT": -1.27e-06, "MEAN_MOTION_DDOT": 0}, "tle": {"line1": "1 43491U 18050A   25343.86657267 -.00000127  00000+0  00000+0 0  9998", "line2": "2 43491   2.5434  81.3538 0002944 165.2045 223.6196  1.00271041 27544"}}, "geometry": {"type": "Point", "coordinates": [-27.69559879432602, -2.4106385288440797]}}, {"type": "Feature", "properties": {"norad_id": 43689, "name": "METOP-C", "group": "weather", "lat": -80.76987716693375, "lon": 112.59279693218777, "alt_km": 828.2854525721896, "timestamp": "2025-12-10T11:33:53.034322+00:00", "meta": {"OBJECT_NAME": "METOP-C", "OBJECT_ID": "2018-087A", "EPOCH": "2025-12-10T03:31:35.551200", "MEAN_MOTION": 14.21510271, "ECCENTRICITY": 0.0001449, "INCLINATION": 98.6933, "RA_OF_ASC_NODE": 41.9563, "ARG_OF_PERICENTER": 46.7548, "MEAN_ANOMALY": 313.375, "EPHEMERIS_TYPE": 0, "CLASSIFICATION_TYPE": "U", "NORAD_CAT_ID": 43689, "ELEMENT_SET_NO": 999, "REV_AT_EPOCH": 36797, "BSTAR": 0.00011893, "MEAN_MOTION_DOT": 2.17e-06, "MEAN_MOTION_DDOT": 0}, "tle": {"line1": "1 43689U 18087A   25344.14693925  .00000217  00000+0  11893-3 0  9995", "line2": "2 43689  98.6933  41.9563 0001449  46.7548 313.3750 14.21510271367978"}}, "geometry": {"type": "Point", "coordinates": [112.59279693218777, -80.76987716693375]}}, {"type": "Feature", "properties": {"norad_id": 43823, "name": "GEO-KOMPSAT-2A", "group": "weather", "lat": -0.023133009829636376, "lon": 21.184448260271296, "alt_km": 35787.20538350208, "timestamp": "2025-12-10T11:33:53.034333+00:00", "meta": {"OBJECT_NAME": "GEO-KOMPSAT-2A", "OBJECT_ID": "2018-100A", "EPOCH": "2025-12-09T23:29:38.510016", "MEAN_MOTION": 1.00269688, "ECCENTRICITY": 1.17e-05, "INCLINATION": 0.0417, "RA_OF_ASC_NODE": 144.825, "ARG_OF_PERICENTER": 34.8694, "MEAN_ANOMALY": 19.9414, "EPHEMERIS_TYPE": 0, "CLASSIFICATION_TYPE": "U", "NORAD_CAT_ID": 43823, "ELEMENT_SET_NO": 999, "REV_AT_EPOCH": 2573, "BSTAR": 0, "MEAN_MOTION_DOT": -3.41e-06, "MEAN_MOTION_DDOT": 0}, "tle": {"line1": "1 43823U 18100A   25343.97891794 -.00000341  00000+0  00000+0 0  9998", "line2": "2 43823   0.0417 144.8250 0000117  34.8694  19.9414  1.00269688 25736"}}, "geometry": {"type": "Point", "coordinates": [21.184448260271296, -0.023133009829636376]}}, {"type": "Feature", "properties": {"norad_id": 44387, "name": "METEOR-M2 2", "group": "weather", "lat": -35.231756185588, "lon": -29.465599682937818, "alt_km": 817.9066560624588, "timestamp": "2025-12-10T11:33:53.034344+00:00", "meta": {"OBJECT_NAME": "METEOR-M2 2", "OBJECT_ID": "2019-038A", "EPOCH": "2025-12-10T04:59:17.427840", "MEAN_MOTION": 14.24290685, "ECCENTRICITY": 0.0001142, "INCLINATION": 98.8971, "RA_OF_ASC_NODE": 323.9054, "ARG_OF_PERICENTER": 151.762, "MEAN_ANOMALY": 208.362, "EPHEMERIS_TYPE": 0, "CLASSIFICATION_TYPE": "U", "NORAD_CAT_ID": 44387, "ELEMENT_SET_NO": 999, "REV_AT_EPOCH": 33439, "BSTAR": 0.0002682, "MEAN_MOTION_DOT": 5.73e-06, "MEAN_MOTION_DDOT": 0}, "tle": {"line1": "1 44387U 19038A   25344.20784060  .00000573  00000+0  26820-3 0  9997", "line2": "2 44387  98.8971 323.9054 0001142 151.7620 208.3620 14.24290685334390"}}, "geometry": {"type": "Point", "coordinates": [-29.465599682937818, -35.231756185588]}}, {"type": "Feature", "properties": {"norad_id": 47719, "name": "ARKTIKA-M 1", "group": "weather", "lat": 44.77402188607204, "lon": -125.75234866721145, "alt_km": 22784.0066008554, "timestamp": "2025-12-10T11:33:53.034365+00:00", "meta": {"OBJECT_NAME": "ARKTIKA-M 1", "OBJECT_ID": "2021-016A", "EPOCH": "2025-12-09T14:03:23.859648", "MEAN_MOTION": 2.00631311, "ECCENTRICITY": 0.7202538, "INCLINATION": 63.1769, "RA_OF_ASC_NODE": 84.4506, "ARG_OF_PERICENTER": 269.1116, "MEAN_ANOMALY": 15.6235, "EPHEMERIS_TYPE": 0, "CLASSIFICATION_TYPE": "U", "NORAD_CAT_ID": 47719, "ELEMENT_SET_NO": 999, "REV_AT_EPOCH": 3498, "BSTAR": 0, "MEAN_MOTION_DOT": -6.1e-07, "MEAN_MOTION_DDOT": 0}, "tle": {"line1": "1 47719U 21016A   25343.58569282 -.00000061  00000+0  00000+0 0  9996", "line2": "2 47719  63.1769  84.4506 7202538 269.1116  15.6235  2.00631311 34985"}}, "geometry": {"type": "Point", "coordinates": [-125.75234866721145, 44.77402188607204]}}, {"type": "Feature", "properties": {"norad_id": 49008, "name": "FENGYUN 3E", "group": "weather", "lat": -40.02597435103212, "lon": -7.540681278579391, "alt_km": 831.8668994835471, "timestamp": "2025-12-10T11:33:53.034378+00:00", "meta": {"OBJECT_NAME": "FENGYUN 3E", "OBJECT_ID": "2021-062A", "EPOCH": "2025-12-10T03:17:57.686208", "MEAN_MOTION": 14.19879674, "ECCENTRICITY": 5.92e-05, "INCLINATION": 98.7474, "RA_OF_ASC_NODE": 344.6892, "ARG_OF_PERICENTER": 287.044, "MEAN_ANOMALY": 73.0671, "EPHEMERIS_TYPE": 0, "CLASSIFICATION_TYPE": "U", "NORAD_CAT_ID": 49008, "ELEMENT_SET_NO": 999, "REV_AT_EPOCH": 22975, "BSTAR": 0.00013971, "MEAN_MOTION_DOT": 2.52e-06, "MEAN_MOTION_DDOT": 0}, "tle": {"line1": "1 49008U 21062A   25344.13747322  .00000252  00000+0  13971-3 0  9991", "line2": "2 49008  98.7474 344.6892 0000592 287.0440  73.0671 14.19879674229754"}}, "geometry": {"type": "Point", "coordinates": [-7.540681278579391, -40.02597435103212]}}, {"type": "Feature", "properties": {"norad_id": 51850, "name": "GOES 18", "group": "weather", "lat": 5.589196523661089e-05, "lon": 115.92201365981951, "alt_km": 35789.20729129006, "timestamp": "2025-12-10T11:33:53.034389+00:00", "meta": {"OBJECT_NAME": "GOES 18", "OBJECT_ID": "2022-021A", "EPOCH": "2025-12-10T05:14:29.455008", "MEAN_MOTION": 1.00270999, "ECCENTRICITY": 6.94e-05, "INCLINATION": 0.0313, "RA_OF_ASC_NODE": 189.68, "ARG_OF_PERICENTER": 107.0329, "MEAN_ANOMALY": 84.105, "EPHEMERIS_TYPE": 0, "CLASSIFICATION_TYPE": "U", "NORAD_CAT_ID": 51850, "ELEMENT_SET_NO": 999, "REV_AT_EPOCH": 469, "BSTAR": 0, "MEAN_MOTION_DOT": 1e-06, "MEAN_MOTION_DDOT": 0}, "tle": {"line1": "1 51850U 22021A   25344.21839647  .00000100  00000+0  00000+0 0  9993", "line2": "2 51850   0.0313 189.6800 0000694 107.0329  84.1050  1.00270999  4695"}}, "geometry": {"type": "Point", "coordinates": [115.92201365981951, 5.589196523661089e-05]}}]}